OBJECT_NAME,OBJECT_ID,EPOCH,MEAN_MOTION,ECCENTRICITY,INCLINATION,RA_OF_ASC_NODE,ARG_OF_PERICENTER,MEAN_ANOMALY,EPHEMERIS_TYPE,CLASSIFICATION_TYPE,NORAD_CAT_ID,ELEMENT_SET_NO,REV_AT_EPOCH,BSTAR,MEAN_MOTION_DOT,MEAN_MOTION_DDOT
STARLINK-4621,2022-105AE,2026-07-08T15:32:00.937248,15.05645360,.00017511,97.2845,67.5577,93.9199,266.2229,0,U,53676,999,21143,.25487065E-4,.311E-5,0
SHERPA-LTC2,2022-107BG,2026-07-08T06:23:30.268320,14.69880791,.03927265,53.2365,131.0875,285.2664,70.5225,0,U,53754,999,20564,.13331737E-3,.2378E-4,0
CENTISPACE-1 S3,2022-108A,2026-07-08T21:21:56.282400,14.61278638,.00105771,53.5342,325.5142,49.9799,310.2103,0,U,53757,999,20470,.87854101E-4,.247E-5,0
CENTISPACE-1 S4,2022-108B,2026-07-08T22:23:07.072800,14.61966378,.0009819,53.5317,322.7531,39.5479,320.6211,0,U,53758,999,20474,.11029351E-3,.366E-5,0
BLUEWALKER-3,2022-111AL,2026-07-08T13:17:07.495872,15.38556377,.00046788,53.2293,293.6432,238.6089,121.4459,0,U,53807,999,21349,.13548442E-3,.4842E-4,0
YUNHAI-1 03,2022-115A,2026-07-08T23:26:18.089664,14.32732954,.00045772,98.5540,187.8476,358.6952,1.4219,0,U,53877,999,19863,.11265193E-3,.263E-5,0
CENTISPACE-1 S5,2022-126A,2026-07-08T22:43:21.142272,14.63048645,.00146073,54.9985,125.8823,112.6853,247.5688,0,U,54020,999,20022,.14135737E-3,.541E-5,0
CENTISPACE-1 S6,2022-126B,2026-07-08T22:49:12.025632,14.62310107,.00164097,54.9988,127.8332,113.6488,246.6231,0,U,54021,999,20018,.10776226E-3,.36E-5,0
OTB-3-GAZELLE,2022-127A,2026-07-08T21:45:55.760832,14.42682363,.00142467,98.3955,181.2815,120.2781,239.9821,0,U,54023,999,19749,.42954017E-4,.1E-5,0
ASO-S,2022-129A,2026-07-08T23:02:03.868800,14.52072721,.00149934,98.2752,194.7287,30.6901,329.5168,0,U,54029,999,19858,.48682712E-4,.152E-5,0
HJ-2E,2022-132A,2026-07-08T23:22:39.046656,15.22637579,.00181528,97.3804,193.9620,294.6515,65.2831,0,U,54035,999,20773,.21746901E-3,.501E-4,0
COSMOS 2561,2022-137A,2026-07-08T12:05:45.498048,15.52250889,.0008289,96.9174,247.7126,311.2512,48.8027,0,U,54109,999,20965,.15253E-3,.918E-4,0
GONETS-M 23,2022-139A,2026-07-08T21:59:41.351712,12.42891742,.0021874,82.5089,334.7895,171.8722,188.2716,0,U,54150,999,16834,.23458892E-3,.42E-6,0
GONETS-M 24,2022-139B,2026-07-08T21:20:54.343968,12.42892374,.00169358,82.5006,333.8512,181.5578,178.5452,0,U,54151,999,16834,.29139728E-3,.5E-6,0
GONETS-M 25,2022-139C,2026-07-08T22:57:16.172352,12.42890729,.00208705,82.5071,334.5077,180.4691,179.6373,0,U,54152,999,16835,.14270793E-3,.3E-6,0
SKIF-D,2022-139D,2026-07-08T01:00:55.506240,5.00428686,.00074066,89.9491,96.6621,190.2651,169.7852,0,U,54153,999,6515,0,.3E-7,0
MATS,2022-147A,2026-07-08T23:36:17.269344,15.05484214,.00141966,97.6828,191.4875,121.6076,238.6538,0,U,54227,999,20104,.85959343E-4,.1175E-4,0
EOS-6 (OCEANSAT-3),2022-158A,2026-07-08T22:40:18.799392,14.46982064,.00002342,98.3549,287.8509,85.7428,274.3791,0,U,54361,999,19098,.57549204E-4,.166E-5,0
DONGPO 09,2022-167D,2026-07-08T23:09:54.606240,15.36836806,.00031931,97.6916,1.9540,66.5956,293.5623,0,U,54685,999,19879,.23192295E-3,.8264E-4,0
DONGPO 08,2022-167E,2026-07-08T23:37:13.909728,15.34098558,.00093696,97.6880,359.0479,92.5064,267.7250,0,U,54686,999,19866,.21788155E-3,.7113E-4,0
2022-167F,2022-167F,2026-07-08T20:38:18.505824,16.08618170,.00058145,97.6027,20.6906,245.1679,114.8999,0,U,54687,999,20029,.65170294E-3,.553215E-2,.15689914E-3
DONGPO 10,2022-167H,2026-07-08T23:30:11.193408,15.34913395,.0005493,97.6962,1.0459,47.4891,312.6814,0,U,54689,999,19870,.21783124E-3,.7293E-4,0
JILIN-1 GAOFEN 03D48,2022-167P,2026-07-08T23:11:01.080672,15.35701469,.00069634,97.6897,0.4177,49.9528,310.2325,0,U,54695,999,19873,.22369466E-3,.7685E-4,0
STAR VIBE,2023-001A,2026-07-08T23:04:36.083136,15.43233366,.00061068,97.3159,254.5205,50.6371,309.5417,0,U,55009,999,19558,.21843988E-3,.9622E-4,0
BRO-8,2023-001C,2026-07-08T22:29:46.209696,15.50460101,.00055504,97.3192,255.4537,61.0305,299.1503,0,U,55011,999,19557,.42803384E-3,.24338E-3,0
CONNECTA T1.2,2023-001D,2026-07-08T10:53:29.593536,15.52473724,.00045992,97.3241,260.5442,33.6643,326.4901,0,U,55012,999,19584,.50265607E-3,.30743E-3,0
BIRKELAND,2023-001G,2026-07-08T23:24:10.915776,15.40464040,.00070827,97.3337,258.0048,41.5193,318.6590,0,U,55015,999,19570,.13899533E-3,.5549E-4,0
ION SCV-008,2023-001AU,2026-07-08T20:07:46.835328,15.28831397,.00132893,97.5711,286.5229,298.2887,61.7011,0,U,55051,999,19464,.15271348E-3,.4209E-4,0
ION SCV-007,2023-001BD,2026-07-08T17:35:26.937024,14.77572649,.00109041,97.8996,252.3196,265.6779,94.3185,0,U,55060,999,18943,.49419495E-4,.302E-5,0
HUYGENS,2023-001CN,2026-07-08T23:24:18.179424,15.40464177,.00091449,97.3240,257.2063,15.8802,344.2729,0,U,55093,999,19572,.14410197E-3,.5759E-4,0
