STARLINK-4621           
1 53676U 22105AE  26189.64723307  .00000311  00000+0  25487-4 0  9999
2 53676  97.2845  67.5577 0001751  93.9199 266.2229 15.05645360211430
SHERPA-LTC2             
1 53754U 22107BG  26189.26632255  .00002378  00000+0  13332-3 0  9997
2 53754  53.2365 131.0875 0392726 285.2664  70.5225 14.69880791205648
CENTISPACE-1 S3         
1 53757U 22108A   26189.89023475  .00000247  00000+0  87854-4 0  9992
2 53757  53.5342 325.5142 0010577  49.9799 310.2103 14.61278638204709
CENTISPACE-1 S4         
1 53758U 22108B   26189.93272075  .00000366  00000+0  11029-3 0  9992
2 53758  53.5317 322.7531 0009819  39.5479 320.6211 14.61966378204744
BLUEWALKER-3            
1 53807U 22111AL  26189.55355898  .00004842  00000+0  13548-3 0  9995
2 53807  53.2293 293.6432 0004678 238.6089 121.4459 15.38556377213494
YUNHAI-1 03             
1 53877U 22115A   26189.97659826  .00000263  00000+0  11265-3 0  9997
2 53877  98.5540 187.8476 0004577 358.6952   1.4219 14.32732954198639
CENTISPACE-1 S5         
1 54020U 22126A   26189.94677248  .00000541  00000+0  14136-3 0  9994
2 54020  54.9985 125.8823 0014607 112.6853 247.5688 14.63048645200223
CENTISPACE-1 S6         
1 54021U 22126B   26189.95083363  .00000360  00000+0  10776-3 0  9990
2 54021  54.9988 127.8332 0016409 113.6488 246.6231 14.62310107200184
OTB-3-GAZELLE           
1 54023U 22127A   26189.90689538  .00000100  00000+0  42954-4 0  9990
2 54023  98.3955 181.2815 0014246 120.2781 239.9821 14.42682363197492
ASO-S                   
1 54029U 22129A   26189.95976700  .00000152  00000+0  48683-4 0  9995
2 54029  98.2752 194.7287 0014993  30.6901 329.5168 14.52072721198584
HJ-2E                   
1 54035U 22132A   26189.97406304  .00005010  00000+0  21747-3 0  9995
2 54035  97.3804 193.9620 0018152 294.6515  65.2831 15.22637579207730
COSMOS 2561             
1 54109U 22137A   26189.50399882  .00009180  00000+0  15253-3 0  9990
2 54109  96.9174 247.7126 0008289 311.2512  48.8027 15.52250889209654
GONETS-M 23             
1 54150U 22139A   26189.91645083  .00000042  00000+0  23459-3 0  9995
2 54150  82.5089 334.7895 0021874 171.8722 188.2716 12.42891742168343
GONETS-M 24             
1 54151U 22139B   26189.88951787  .00000050  00000+0  29140-3 0  9995
2 54151  82.5006 333.8512 0016935 181.5578 178.5452 12.42892374168349
GONETS-M 25             
1 54152U 22139C   26189.95643718  .00000030  00000+0  14271-3 0  9993
2 54152  82.5071 334.5077 0020870 180.4691 179.6373 12.42890729168350
SKIF-D                  
1 54153U 22139D   26189.04230910  .00000003  00000+0  00000+0 0  9991
2 54153  89.9491  96.6621 0007406 190.2651 169.7852  5.00428686 65155
MATS                    
1 54227U 22147A   26189.98353321  .00001175  00000+0  85959-4 0  9999
2 54227  97.6828 191.4875 0014196 121.6076 238.6538 15.05484214201047
EOS-6 (OCEANSAT-3)      
1 54361U 22158A   26189.94466203  .00000166  00000+0  57549-4 0  9993
2 54361  98.3549 287.8509 0000234  85.7428 274.3791 14.46982064190985
DONGPO 09               
1 54685U 22167D   26189.96521535  .00008264  00000+0  23192-3 0  9997
2 54685  97.6916   1.9540 0003193  66.5956 293.5623 15.36836806198790
DONGPO 08               
1 54686U 22167E   26189.98418877  .00007113  00000+0  21788-3 0  9995
2 54686  97.6880 359.0479 0009369  92.5064 267.7250 15.34098558198666
2022-167F               
1 54687U 22167F   26189.85993641  .00553215  15690-3  65170-3 0  9996
2 54687  97.6027  20.6906 0005814 245.1679 114.8999 16.08618170200290
DONGPO 10               
1 54689U 22167H   26189.97929622  .00007293  00000+0  21783-3 0  9996
2 54689  97.6962   1.0459 0005493  47.4891 312.6814 15.34913395198709
JILIN-1 GAOFEN 03D48    
1 54695U 22167P   26189.96598473  .00007685  00000+0  22369-3 0  9994
2 54695  97.6897   0.4177 0006963  49.9528 310.2325 15.35701469198732
STAR VIBE               
1 55009U 23001A   26189.96152874  .00009622  00000+0  21844-3 0  9993
2 55009  97.3159 254.5205 0006106  50.6371 309.5417 15.43233366195586
BRO-8                   
1 55011U 23001C   26189.93734039  .00024338  00000+0  42803-3 0  9991
2 55011  97.3192 255.4537 0005550  61.0305 299.1503 15.50460101195575
CONNECTA T1.2           
1 55012U 23001D   26189.45381474  .00030743  00000+0  50266-3 0  9999
2 55012  97.3241 260.5442 0004599  33.6643 326.4901 15.52473724195848
BIRKELAND               
1 55015U 23001G   26189.97512634  .00005549  00000+0  13900-3 0  9993
2 55015  97.3337 258.0048 0007082  41.5193 318.6590 15.40464040195709
ION SCV-008             
1 55051U 23001AU  26189.83873652  .00004209  00000+0  15271-3 0  9993
2 55051  97.5711 286.5229 0013289 298.2887  61.7011 15.28831397194646
ION SCV-007             
1 55060U 23001BD  26189.73295066  .00000302  00000+0  49419-4 0  9991
2 55060  97.8996 252.3196 0010904 265.6779  94.3185 14.77572649189437
HUYGENS                 
1 55093U 23001CN  26189.97521041  .00005759  00000+0  14410-3 0  9991
2 55093  97.3240 257.2063 0009144  15.8802 344.2729 15.40464177195720
